NORAD_CAT_ID,OBJECT_NAME,OBJECT_TYPE,EPOCH,MEAN_MOTION,ECCENTRICITY,INCLINATION,RA_OF_ASC_NODE,ARG_OF_PERICENTER,MEAN_ANOMALY,BSTAR,MEAN_MOTION_DOT,MEAN_MOTION_DDOT,TLE_LINE0,TLE_LINE1,TLE_LINE2,SEMIMAJOR_AXIS,PERIOD,APOGEE,PERIGEE,DECAYED
54102.0,STARLINK-5179,PAYLOAD,2023-02-05 21:52:46,15.0883957,0.0001262,53.2172,356.4985,93.2127,266.901,0.00046665,7.147e-05,0.0,0 STARLINK-5179,1 54102U 22136BD  23036.91164352  .00007147  00000-0  46665-3 0  9990,2 54102  53.2172 356.4985 0001262  93.2127 266.9010 15.08839570 16736,6917.882,95.438,540.62,538.874,0.0
54102.0,STARLINK-5179,PAYLOAD,2023-02-06 05:49:41,15.08860149,0.000119,53.2174,355.0119,91.9718,268.141,0.0010311,0.00016169,0.0,0 STARLINK-5179,1 54102U 22136BD  23037.24283932  .00016169  00000-0  10311-2 0  9995,2 54102  53.2174 355.0119 0001190  91.9718 268.1410 15.08860149 17255,6917.819,95.436,540.507,538.861,0.0
54102.0,STARLINK-5179,PAYLOAD,2023-02-06 21:43:32,15.08855109,0.000125,53.2175,352.0382,84.3866,275.7269,0.00049582,7.615e-05,0.0,0 STARLINK-5179,1 54102U 22136BD  23037.90523734  .00007615  00000-0  49582-3 0  9994,2 54102  53.2175 352.0382 0001250  84.3866 275.7269 15.08855109 17359,6917.834,95.437,540.564,538.834,0.0
54102.0,STARLINK-5179,PAYLOAD,2023-02-07 07:15:50,15.08871777,0.0001347,53.2177,350.2543,89.4788,270.6358,0.00083636,0.00013059,0.0,0 STARLINK-5179,1 54102U 22136BD  23038.30266958  .00013059  00000-0  83636-3 0  9998,2 54102  53.2177 350.2543 0001347  89.4788 270.6358 15.08871777 17415,6917.783,95.436,540.58,538.716,0.0
54102.0,STARLINK-5179,PAYLOAD,2023-02-08 05:31:14,15.08866516,0.0001342,53.2179,346.0871,91.4051,268.7095,0.0010395,0.00016306,0.0,0 STARLINK-5179,1 54102U 22136BD  23039.23002859  .00016306  00000-0  10395-2 0  9998,2 54102  53.2179 346.0871 0001342  91.4051 268.7095 15.08866516 17551,6917.799,95.436,540.593,538.736,0.0
54102.0,STARLINK-5179,PAYLOAD,2023-02-09 05:22:02,15.08852587,0.0001324,53.2172,341.631,87.5523,272.562,0.0017542,0.0002775,0.0,0 STARLINK-5179,1 54102U 22136BD  23040.22363837  .00027750  00000-0  17542-2 0  9991,2 54102  53.2172 341.6310 0001324  87.5523 272.5620 15.08852587 17700,6917.842,95.437,540.623,538.791,0.0
54102.0,STARLINK-5179,PAYLOAD,2023-02-10 02:02:03,15.08854241,0.0001949,53.2179,337.7666,75.5557,284.5651,0.0016754,0.00026487,0.0,0 STARLINK-5179,1 54102U 22136BD  23041.08476500  .00026487  00000-0  16754-2 0  9998,2 54102  53.2179 337.7666 0001949  75.5557 284.5651 15.08854241 17362,6917.837,95.437,541.05,538.354,0.0
54102.0,STARLINK-5179,PAYLOAD,2023-02-10 05:12:49,15.08869577,0.0001388,53.217,337.1701,69.9316,290.1826,0.0023647,0.00037578,0.0,0 STARLINK-5179,1 54102U 22136BD  23041.21724208  .00037578  00000-0  23647-2 0  9996,2 54102  53.2170 337.1701 0001388  69.9316 290.1826 15.08869577 17853,6917.79,95.436,540.615,538.695,0.0
54102.0,STARLINK-5179,PAYLOAD,2023-02-11 01:52:50,15.08869599,9.84e-05,53.2171,333.3056,73.6855,286.4245,0.0019019,0.00030135,0.0,0 STARLINK-5179,1 54102U 22136BD  23042.07835749  .00030135  00000-0  19019-2 0  9994,2 54102  53.2171 333.3056 0000984  73.6855 286.4245 15.08869599 17987,6917.79,95.436,540.336,538.974,0.0
54102.0,STARLINK-5179,PAYLOAD,2023-02-11 19:22:04,15.08854723,0.0001545,53.2165,330.0341,79.5721,280.5446,0.0020558,0.00032595,0.0,0 STARLINK-5179,1 54102U 22136BD  23042.80699838  .00032595  00000-0  20558-2 0  9994,2 54102  53.2165 330.0341 0001545  79.5721 280.5446 15.08854723 18096,6917.835,95.437,540.769,538.632,0.0
54102.0,STARLINK-5179,PAYLOAD,2023-02-12 03:18:59,15.08861186,0.0001435,53.2166,328.5487,69.3251,290.7895,0.0012312,0.00019372,0.0,0 STARLINK-5179,1 54102U 22136BD  23043.13819389  .00019372  00000-0  12312-2 0  9993,2 54102  53.2166 328.5487 0001435  69.3251 290.7895 15.08861186 18141,6917.816,95.436,540.673,538.688,0.0
54102.0,STARLINK-5179,PAYLOAD,2023-02-13 04:45:11,15.08838653,0.0001077,53.2172,323.7892,80.5033,279.6081,0.00082732,0.00012903,0.0,0 STARLINK-5179,1 54102U 22136BD  23044.19804713  .00012903  00000-0  82732-3 0  9992,2 54102  53.2172 323.7892 0001077  80.5033 279.6081 15.08838653 18304,6917.885,95.438,540.495,539.004,0.0
54102.0,STARLINK-5179,PAYLOAD,2023-02-13 11:06:43,15.08837011,0.0001157,53.2178,322.6002,84.2505,275.8619,0.0007545,0.00011739,0.0,0 STARLINK-5179,1 54102U 22136BD  23044.46300887  .00011739  00000-0  75450-3 0  9990,2 54102  53.2178 322.6002 0001157  84.2505 275.8619 15.08837011 17878,6917.89,95.438,540.555,538.954,0.0
54102.0,STARLINK-5179,PAYLOAD,2023-02-14 03:00:36,15.0881257,0.0001046,53.2167,319.6266,65.7214,294.3888,0.00016783,2.382e-05,0.0,0 STARLINK-5179,1 54102U 22136BD  23045.12542188  .00002382  00000-0  16783-3 0  9994,2 54102  53.2167 319.6266 0001046  65.7214 294.3888 15.08812570 18443,6917.964,95.439,540.553,539.106,0.0
54102.0,STARLINK-5179,PAYLOAD,2023-02-14 10:57:32,15.08820618,0.0001616,53.2174,318.1405,78.7978,281.3195,0.00051213,7.868e-05,0.0,0 STARLINK-5179,1 54102U 22136BD  23045.45662716  .00007868  00000-0  51213-3 0  9991,2 54102  53.2174 318.1405 0001616  78.7978 281.3195 15.08820618 18027,6917.94,95.439,540.923,538.687,0.0
54102.0,STARLINK-5179,PAYLOAD,2023-02-14 17:19:04,15.0884497,1.88e-05,53.2174,316.9494,299.0581,61.0393,0.00060552,9.364e-05,0.0,0 STARLINK-5179,1 54102U 22136BD  23045.72157700  .00009364  00000-0  60552-3 0  9992,2 54102  53.2174 316.9494 0000188 299.0581  61.0393 15.08844970 18538,6917.865,95.437,539.86,539.6,0.0
54102.0,STARLINK-5179,PAYLOAD,2023-02-15 01:15:58,15.08881129,0.0001242,53.2183,315.4657,75.3459,284.7671,0.0011266,0.00017707,0.0,0 STARLINK-5179,1 54102U 22136BD  23046.05276242  .00017707  00000-0  11266-2 0  9999,2 54102  53.2183 315.4657 0001242  75.3459 284.7671 15.08881129 18589,6917.755,95.435,540.479,538.76,0.0
54102.0,STARLINK-5179,PAYLOAD,2023-02-15 10:48:17,15.08865316,0.0001005,53.2181,313.6798,83.7797,276.331,0.00047773,7.329e-05,0.0,0 STARLINK-5179,1 54102U 22136BD  23046.45020035  .00007329  00000-0  47773-3 0  9992,2 54102  53.2181 313.6798 0001005  83.7797 276.3310 15.08865316 18642,6917.803,95.436,540.363,538.973,0.0
54102.0,STARLINK-5179,PAYLOAD,2023-02-15 21:55:59,15.08852656,0.0001423,53.2169,311.5993,87.391,272.7245,-0.00022257,-3.83e-05,0.0,0 STARLINK-5179,1 54102U 22136BD  23046.91387983 -.00003830  00000-0 -22257-3 0  9996,2 54102  53.2169 311.5993 0001423  87.3910 272.7245 15.08852656 18249,6917.842,95.437,540.691,538.722,0.0
54102.0,STARLINK-5179,PAYLOAD,2023-02-15 23:31:22,15.08851593,9.9e-05,53.2166,311.3032,93.9676,266.1429,-0.00017925,-3.14e-05,0.0,0 STARLINK-5179,1 54102U 22136BD  23046.98011844 -.00003140  00000-0 -17925-3 0  9993,2 54102  53.2166 311.3032 0000990  93.9676 266.1429 15.08851593 18721,6917.845,95.437,540.395,539.025,0.0
54102.0,STARLINK-5179,PAYLOAD,2023-02-16 01:06:45,15.08863812,8.95e-05,53.2167,311.003,83.7072,276.4022,0.00016828,2.393e-05,0.0,0 STARLINK-5179,1 54102U 22136BD  23047.04635527  .00002393  00000-0  16828-3 0  9999,2 54102  53.2167 311.0030 0000895  83.7072 276.4022 15.08863812 18739,6917.808,95.436,540.292,539.053,0.0
54102.0,STARLINK-5179,PAYLOAD,2023-02-16 10:39:04,15.08839283,0.0001234,53.2161,309.2195,68.2893,291.823,-0.00021254,-3.669e-05,0.0,0 STARLINK-5179,1 54102U 22136BD  23047.44380264 -.00003669  00000-0 -21254-3 0  9996,2 54102  53.2161 309.2195 0001234  68.2893 291.8230 15.08839283 18794,6917.883,95.438,540.601,538.894,0.0
54102.0,STARLINK-5179,PAYLOAD,2023-02-16 21:46:47,15.08817265,0.0001989,53.2159,307.1386,77.7867,282.3347,3.7305e-05,3.05e-06,0.0,0 STARLINK-5179,1 54102U 22136BD  23047.90749617  .00000305  00000-0  37305-4 0  9995,2 54102  53.2159 307.1386 0001989  77.7867 282.3347 15.08817265 18399,6917.95,95.439,541.191,538.439,0.0
54102.0,STARLINK-5179,PAYLOAD,2023-02-16 23:22:10,15.08820857,0.0001408,53.217,306.8418,69.9261,290.1883,6.823e-06,-1.79e-06,0.0,0 STARLINK-5179,1 54102U 22136BD  23047.97373507 -.00000179  00000-0  68230-5 0  9995,2 54102  53.2170 306.8418 0001408  69.9261 290.1883 15.08820857 18877,6917.939,95.439,540.778,538.83,0.0
54102.0,STARLINK-5179,PAYLOAD,2023-02-17 10:29:53,15.08822871,9.38e-05,53.2166,304.7591,67.2325,292.8766,0.00023538,3.459e-05,0.0,0 STARLINK-5179,1 54102U 22136BD  23048.43741987  .00003459  00000-0  23538-3 0  9991,2 54102  53.2166 304.7591 0000938  67.2325 292.8766 15.08822871 18473,6917.933,95.439,540.447,539.149,0.0
54102.0,STARLINK-5179,PAYLOAD,2023-02-18 10:20:40,15.08837572,0.0001263,53.2169,300.2965,82.6101,277.5035,0.00056187,8.665e-05,0.0,0 STARLINK-5179,1 54102U 22136BD  23049.43102984  .00008665  00000-0  56187-3 0  9990,2 54102  53.2169 300.2965 0001263  82.6101 277.5035 15.08837572 19099,6917.888,95.438,540.627,538.879,0.0
54102.0,STARLINK-5179,PAYLOAD,2023-02-18 23:03:45,15.08865204,0.0001178,53.2159,297.9175,84.6563,275.4564,0.0011231,0.00017644,0.0,0 STARLINK-5179,1 54102U 22136BD  23049.96094310  .00017644  00000-0  11231-2 0  9998,2 54102  53.2159 297.9175 0001178  84.6563 275.4564 15.08865204 19178,6917.803,95.436,540.483,538.853,0.0
54102.0,STARLINK-5179,PAYLOAD,2023-02-19 16:32:59,15.08865172,0.0001277,53.2153,294.6486,70.6363,289.4767,0.00065119,0.00010098,0.0,0 STARLINK-5179,1 54102U 22136BD  23050.68957783  .00010098  00000-0  65119-3 0  9992,2 54102  53.2153 294.6486 0001277  70.6363 289.4767 15.08865172 19280,6917.803,95.436,540.552,538.785,0.0
54102.0,STARLINK-5179,PAYLOAD,2023-02-20 08:26:50,15.08847251,0.0001291,53.2158,291.6751,82.0356,278.0782,1.9316e-05,2e-07,0.0,0 STARLINK-5179,1 54102U 22136BD  23051.35197632  .00000020  00000-0  19316-4 0  9999,2 54102  53.2158 291.6751 0001291  82.0356 278.0782 15.08847251 19382,6917.858,95.437,540.616,538.83,0.0
54102.0,STARLINK-5179,PAYLOAD,2023-02-21 00:20:41,15.08851399,0.0001202,53.2181,288.7032,89.19,270.923,1.2549e-05,-8.8e-07,0.0,0 STARLINK-5179,1 54102U 22136BD  23052.01437435 -.00000088  00000-0  12549-4 0  9997,2 54102  53.2181 288.7032 0001202  89.1900 270.9230 15.08851399 19019,6917.846,95.437,540.542,538.879,0.0
